0 ATLAS 2AS CENTAUR R/B
1 28155U 04003B   13281.05435444  .00009747  00000-0  19682-2 0  3474
2 28155 012.2421 060.5031 6806248 201.4026 261.2772 02.90245238 91708
0 ATLAS 2AS CENTAUR R/B
1 28155U 04003B   13282.38275394  .00009918  00000-0  19827-2 0  3489
2 28155 012.2453 059.7888 6806063 202.7880 209.3256 02.90282433 91742
0 ATLAS 2AS CENTAUR R/B
1 28155U 04003B   13282.98765559  .00009941  00000-0  19535-2 0  3495
2 28155 012.2474 059.4653 6806301 203.4190 121.4494 02.90293392 91765
0 ATLAS 2AS CENTAUR R/B
1 28155U 04003B   13283.30949927  .00017844  00000-0  32070-2 0  3518
2 28155 012.2305 059.2505 6808296 203.7955 097.8115 02.90291530 91767
0 ATLAS 2AS CENTAUR R/B
1 28155U 04003B   13283.94965091  .00010700  00000-0  20915-2 0  3506
2 28155 012.2494 058.9473 6806147 204.4236 046.8132 02.90310764 91796
0 ATLAS 2AS CENTAUR R/B
1 28155U 04003B   13286.64900404  .00011059  00000-0  21275-2 0  3523
2 28155 012.2552 057.4940 6805994 207.2443 348.2125 02.90354264 91877
0 ATLAS 2AS CENTAUR R/B
1 28155U 04003B   13287.83208016  .00011706  00000-0  22375-2 0  3537
2 28155 012.2581 056.8583 6806015 208.4802 144.9149 02.90381449 91908
0 ATLAS 2AS CENTAUR R/B
1 28155U 04003B   13288.84778047  .00012065  00000-0  23006-2 0  3547
2 28155 012.2606 056.3121 6806013 209.5446 126.7416 02.90404505 91930
0 ATLAS 2AS CENTAUR R/B
1 28155U 04003B   13289.98276036  .00011732  00000-0  22386-2 0  3555
2 28155 012.2632 055.7021 6805963 210.7305 233.3559 02.90430923 91961
0 ATLAS 2AS CENTAUR R/B
1 28155U 04003B   13290.99202527  .00011590  00000-0  22212-2 0  3563
2 28155 012.2654 055.1593 6805845 211.7838 208.6227 02.90453389 91995
0 ATLAS 2AS CENTAUR R/B
1 28155U 04003B   13292.18697728  .00011868  00000-0  22619-2 0  3577
2 28155 012.2681 054.5178 6805928 213.0335 018.1480 02.90478972 92032
0 ATLAS 2AS CENTAUR R/B
1 28155U 04003B   13293.36857272  .00012185  00000-0  23104-2 0  3584
2 28155 012.2708 053.8840 6805897 214.2668 173.8117 02.90509953 92060
0 ATLAS 2AS CENTAUR R/B
1 28155U 04003B   13293.96640550  .00011445  00000-0  21690-2 0  3596
2 28155 012.2717 053.5617 6805828 214.9000 079.0292 02.90527422 92084
0 ATLAS 2AS CENTAUR R/B
1 28155U 04003B   13294.33500265  .00011573  00000-0  21885-2 0  3606
2 28155 012.2724 053.3641 6805815 215.2828 104.5403 02.90535759 92096
0 ATLAS 2AS CENTAUR R/B
1 28155U 04003B   13295.00242446  .00011755  00000-0  22139-2 0  3611
2 28155 012.2735 053.0044 6805772 215.9847 082.6108 02.90551328 92113
